[Satellite]
VERSION=1.1
NAME=MOLNIYA 3-8
NICKNAME=MOLNIYA 3-8
TLE1=1 10455U 77105A   17185.27231214  .00000575  00000-0  27611-2 0  9995
TLE2=2 10455  62.2442 260.7446 7299661 268.3384  15.2116  2.00835290290848
